*******************************************************************************
Ephemeris / WWW_USER Sun Dec 18 18:55:23 2016 Pasadena, USA      / Horizons    
*******************************************************************************
Target body name: Moon (301)                      {source: DE431mx}
Center body name: Earth (399)                     {source: DE431mx}
Center-site name: (user defined site below)
*******************************************************************************
Start time      : A.D. 2019-Apr-01 00:00:00.0000 UT      
Stop  time      : A.D. 2019-Aug-02 00:00:00.0000 UT      
Step-size       : 2 minutes
*******************************************************************************
Target pole/equ : IAU_MOON                        {East-longitude +}
Target radii    : 1737.4 x 1737.4 x 1737.4 km     {Equator, meridian, pole}    
Center geodetic : 241.855000,34.1456000,0.0000000 {E-lon(deg),Lat(deg),Alt(km)}
Center cylindric: 241.855000,5284.21009,3559.8244 {E-lon(deg),Dxy(km),Dz(km)}
Center pole/equ : High-precision EOP model        {East-longitude +}
Center radii    : 6378.1 x 6378.1 x 6356.8 km     {Equator, meridian, pole}    
Target primary  : Earth
Vis. interferer : MOON (R_eq= 1737.400) km        {source: DE431mx}
Rel. light bend : Sun, EARTH                      {source: DE431mx}
Rel. lght bnd GM: 1.3271E+11, 3.9860E+05 km^3/s^2                              
Atmos refraction: NO (AIRLESS)
RA format       : HMS
Time format     : CAL 
RTS-only print  : NO       
EOP file        : eop.161216.p170309                                           
EOP coverage    : DATA-BASED 1962-JAN-20 TO 2016-DEC-16. PREDICTS-> 2017-MAR-08
Units conversion: 1 au= 149597870.700 km, c= 299792.458 km/s, 1 day= 86400.0 s 
Table cut-offs 1: Elevation (-90.0deg=NO ),Airmass (>38.000=NO), Daylight (NO )
Table cut-offs 2: Solar Elongation (  0.0,180.0=NO ),Local Hour Angle( 0.0=NO )
*******************************************************************************
 Date__(UT)__HR:MN     Azi_(a-appr)_Elev
****************************************
$$SOE
 2019-May-13 03:12 Cm  182.2932  68.1033
 2019-May-13 03:14 Nm  183.5728  68.0762
 2019-May-13 03:16 Nm  184.8490  68.0400
 2019-May-13 03:18 Nm  186.1209  67.9949
 2019-May-13 03:20 Nm  187.3877  67.9409
 2019-May-13 03:22 Nm  188.6484  67.8780
 2019-May-13 03:24 Nm  189.9021  67.8063
 2019-May-13 03:26 Nm  191.1482  67.7260
 2019-May-13 03:28 Nm  192.3857  67.6370
 2019-May-13 03:30 Nm  193.6139  67.5395
 2019-May-13 03:32 Nm  194.8320  67.4336
 2019-May-13 03:34 Nm  196.0395  67.3195
 2019-May-13 03:36 Nm  197.2357  67.1972
 2019-May-13 03:38 Nm  198.4200  67.0669
 2019-May-13 03:40 Nm  199.5919  66.9287
 2019-May-13 03:42 Nm  200.7509  66.7827
 2019-May-13 03:44 Nm  201.8965  66.6292
 2019-May-13 03:46 Am  203.0283  66.4682
 2019-May-13 03:48 Am  204.1461  66.3000
 2019-May-13 03:50 Am  205.2494  66.1246
 2019-May-13 03:52 Am  206.3381  65.9422
 2019-May-13 03:54 Am  207.4118  65.7530
 2019-May-13 03:56 Am  208.4705  65.5572
 2019-May-13 03:58 Am  209.5140  65.3548
 2019-May-13 04:00 Am  210.5421  65.1461
 2019-May-13 04:02 Am  211.5549  64.9313
 2019-May-13 04:04 Am  212.5522  64.7104
 2019-May-13 04:06 Am  213.5341  64.4837
 2019-May-13 04:08 Am  214.5005  64.2513
 2019-May-13 04:10 Am  215.4516  64.0133
 2019-May-13 04:12 Am  216.3873  63.7699
 2019-May-13 04:14 Am  217.3079  63.5213
 2019-May-13 04:16 Am  218.2134  63.2677
 2019-May-13 04:18 Am  219.1039  63.0090
 2019-May-13 04:20 Am  219.9797  62.7456
 2019-May-13 04:22  m  220.8408  62.4775
 2019-May-13 04:24  m  221.6874  62.2049
 2019-May-13 04:26  m  222.5198  61.9279
 2019-May-13 04:28  m  223.3382  61.6467
 2019-May-13 04:30  m  224.1427  61.3613
 2019-May-13 04:32  m  224.9336  61.0719
 2019-May-13 04:34  m  225.7111  60.7787
 2019-May-13 04:36  m  226.4754  60.4817
 2019-May-13 04:38  m  227.2269  60.1810
 2019-May-13 04:40  m  227.9656  59.8769
 2019-May-13 04:42  m  228.6919  59.5693
 2019-May-13 04:44  m  229.4061  59.2584
 2019-May-13 04:46  m  230.1083  58.9443
 2019-May-13 04:48  m  230.7988  58.6271
 2019-May-13 04:50  m  231.4778  58.3068
 2019-May-13 04:52  m  232.1457  57.9837
 2019-May-13 04:54  m  232.8026  57.6577
 2019-May-13 04:56  m  233.4487  57.3290
 2019-May-13 04:58  m  234.0845  56.9977
 2019-May-13 05:00  m  234.7099  56.6638
 2019-May-13 05:02  m  235.3254  56.3274
 2019-May-13 05:04  m  235.9311  55.9886
 2019-May-13 05:06  m  236.5273  55.6475
 2019-May-13 05:08  m  237.1142  55.3041
 2019-May-13 05:10  m  237.6920  54.9585
 2019-May-13 05:12  m  238.2609  54.6108
 2019-May-13 05:14  m  238.8212  54.2611
 2019-May-13 05:16  m  239.3730  53.9094
 2019-May-13 05:18  m  239.9166  53.5558
 2019-May-13 05:20  m  240.4521  53.2002
 2019-May-13 05:22  m  240.9798  52.8429
 2019-May-13 05:24  m  241.4999  52.4839
 2019-May-13 05:26  m  242.0125  52.1232
 2019-May-13 05:28  m  242.5179  51.7608
 2019-May-13 05:30  m  243.0161  51.3968
 2019-May-13 05:32  m  243.5075  51.0313
 2019-May-13 05:34  m  243.9921  50.6643
 2019-May-13 05:36  m  244.4702  50.2959
 2019-May-13 05:38  m  244.9418  49.9260
 2019-May-13 05:40  m  245.4073  49.5549
 2019-May-13 05:42  m  245.8666  49.1824
 2019-May-13 05:44  m  246.3200  48.8086
 2019-May-13 05:46  m  246.7677  48.4336
 2019-May-13 05:48  m  247.2097  48.0574
 2019-May-13 05:50  m  247.6462  47.6801
 2019-May-13 05:52  m  248.0773  47.3016
 2019-May-13 05:54  m  248.5033  46.9221
 2019-May-13 05:56  m  248.9242  46.5415
 2019-May-13 05:58  m  249.3401  46.1599
 2019-May-13 06:00  m  249.7512  45.7773
 2019-May-13 06:02  m  250.1576  45.3938
 2019-May-13 06:04  m  250.5594  45.0094
 2019-May-13 06:06  m  250.9567  44.6240
 2019-May-13 06:08  m  251.3497  44.2378
 2019-May-13 06:10  m  251.7385  43.8508
 2019-May-13 06:12  m  252.1231  43.4629
 2019-May-13 06:14  m  252.5037  43.0743
 2019-May-13 06:16  m  252.8803  42.6849
 2019-May-13 06:18  m  253.2531  42.2948
 2019-May-13 06:20  m  253.6222  41.9040
 2019-May-13 06:22  m  253.9877  41.5125
 2019-May-13 06:24  m  254.3496  41.1203
 2019-May-13 06:26  m  254.7081  40.7275
 2019-May-13 06:28  m  255.0632  40.3341
 2019-May-13 06:30  m  255.4150  39.9401
 2019-May-13 06:32  m  255.7637  39.5455
 2019-May-13 06:34  m  256.1092  39.1504
 2019-May-13 06:36  m  256.4517  38.7547
 2019-May-13 06:38  m  256.7913  38.3585
 2019-May-13 06:40  m  257.1279  37.9619
 2019-May-13 06:42  m  257.4618  37.5647
 2019-May-13 06:44  m  257.7929  37.1671
 2019-May-13 06:46  m  258.1214  36.7690
 2019-May-13 06:48  m  258.4473  36.3705
 2019-May-13 06:50  m  258.7707  35.9716
 2019-May-13 06:52  m  259.0916  35.5723
 2019-May-13 06:54  m  259.4102  35.1726
 2019-May-13 06:56  m  259.7264  34.7725
 2019-May-13 06:58  m  260.0403  34.3721
 2019-May-13 07:00  m  260.3520  33.9714
 2019-May-13 07:02  m  260.6616  33.5704
 2019-May-13 07:04  m  260.9691  33.1690
 2019-May-13 07:06  m  261.2746  32.7674
 2019-May-13 07:08  m  261.5781  32.3654
 2019-May-13 07:10  m  261.8797  31.9632
 2019-May-13 07:12  m  262.1794  31.5608
 2019-May-13 07:14  m  262.4773  31.1581
 2019-May-13 07:16  m  262.7734  30.7552
 2019-May-13 07:18  m  263.0678  30.3521
 2019-May-13 07:20  m  263.3606  29.9488
 2019-May-13 07:22  m  263.6517  29.5452
 2019-May-13 07:24  m  263.9413  29.1415
 2019-May-13 07:26  m  264.2293  28.7377
 2019-May-13 07:28  m  264.5158  28.3337
 2019-May-13 07:30  m  264.8009  27.9295
 2019-May-13 07:32  m  265.0847  27.5252
 2019-May-13 07:34  m  265.3670  27.1208
 2019-May-13 07:36  m  265.6481  26.7162
 2019-May-13 07:38  m  265.9279  26.3116
 2019-May-13 07:40  m  266.2064  25.9068
 2019-May-13 07:42  m  266.4838  25.5020
 2019-May-13 07:44  m  266.7600  25.0971
 2019-May-13 07:46  m  267.0351  24.6922
 2019-May-13 07:48  m  267.3091  24.2872
 2019-May-13 07:50  m  267.5821  23.8821
 2019-May-13 07:52  m  267.8541  23.4770
 2019-May-13 07:54  m  268.1251  23.0719
 2019-May-13 07:56  m  268.3952  22.6668
 2019-May-13 07:58  m  268.6644  22.2616
 2019-May-13 08:00  m  268.9327  21.8565
 2019-May-13 08:02  m  269.2002  21.4514
 2019-May-13 08:04  m  269.4669  21.0463
 2019-May-13 08:06  m  269.7329  20.6412
 2019-May-13 08:08  m  269.9981  20.2362
 2019-May-13 08:10  m  270.2626  19.8312
 2019-May-13 08:12  m  270.5264  19.4262
 2019-May-13 08:14  m  270.7897  19.0213
 2019-May-13 08:16  m  271.0523  18.6165
 2019-May-13 08:18  m  271.3143  18.2118
 2019-May-13 08:20  m  271.5758  17.8071
 2019-May-13 08:22  m  271.8367  17.4026
 2019-May-13 08:24  m  272.0972  16.9981
 2019-May-13 08:26  m  272.3572  16.5938
 2019-May-13 08:28  m  272.6168  16.1896
 2019-May-13 08:30  m  272.8760  15.7855
 2019-May-13 08:32  m  273.1348  15.3815
 2019-May-13 08:34  m  273.3932  14.9777
 2019-May-13 08:36  m  273.6513  14.5741
 2019-May-13 08:38  m  273.9092  14.1706
 2019-May-13 08:40  m  274.1668  13.7672
 2019-May-13 08:42  m  274.4241  13.3641
 2019-May-13 08:44  m  274.6812  12.9611
 2019-May-13 08:46  m  274.9381  12.5583
 2019-May-13 08:48  m  275.1949  12.1557
 2019-May-13 08:50  m  275.4515  11.7533
 2019-May-13 08:52  m  275.7080  11.3511
 2019-May-13 08:54  m  275.9644  10.9492
 2019-May-13 08:56  m  276.2208  10.5475
 2019-May-13 08:58  m  276.4771  10.1460
 2019-May-13 09:00  m  276.7334   9.7447
 2019-May-13 09:02  m  276.9898   9.3437
 2019-May-13 09:04  m  277.2461   8.9430
 2019-May-13 09:06  m  277.5025   8.5425
 2019-May-13 09:08  m  277.7591   8.1424
 2019-May-13 09:10  m  278.0157   7.7425
 2019-May-13 09:12  m  278.2724   7.3428
 2019-May-13 09:14  m  278.5293   6.9435
 2019-May-13 09:16  m  278.7864   6.5445
 2019-May-13 09:18  m  279.0437   6.1458
 2019-May-13 09:20  m  279.3012   5.7475
 2019-May-13 09:22  m  279.5590   5.3494
 2019-May-13 09:24  m  279.8171   4.9517
 2019-May-13 09:26  m  280.0754   4.5544
 2019-May-13 09:28  m  280.3341   4.1574
 2019-May-13 09:30  m  280.5931   3.7607
 2019-May-13 09:32  m  280.8525   3.3645
 2019-May-13 09:34  m  281.1123   2.9686
